CCSDS_OMM_VERS,COMMENT,CREATION_DATE,ORIGINATOR,OBJECT_NAME,OBJECT_ID,CENTER_NAME,REF_FRAME,TIME_SYSTEM,MEAN_ELEMENT_THEORY,EPOCH,MEAN_MOTION,ECCENTRICITY,INCLINATION,RA_OF_ASC_NODE,ARG_OF_PERICENTER,MEAN_ANOMALY,EPHEMERIS_TYPE,CLASSIFICATION_TYPE,NORAD_CAT_ID,ELEMENT_SET_NO,REV_AT_EPOCH,BSTAR,MEAN_MOTION_DOT,MEAN_MOTION_DDOT,SEMIMAJOR_AXIS,PERIOD,APOAPSIS,PERIAPSIS,OBJECT_TYPE,RCS_SIZE,COUNTRY_CODE,LAUNCH_DATE,SITE,DECAY_DATE,FILE,GP_ID,TLE_LINE0,TLE_LINE1,TLE_LINE2
"3.0","GENERATED VIA SPACE-TRACK.ORG API","2026-06-23T03:40:42","18 SPCS","FENGYUN 1C DEB","1999-025EWR","EARTH","TEME","UTC","SGP4","2025-03-10T00:11:40.459488","13.89044879","0.01593570","99.3268","153.7618","34.3098","326.8231","0","U","40685","999","52107","0.00258713780000","0.00003429","0.0000000000000","7310.117","103.668","1048.474","815.490","DEBRIS","MEDIUM","PRC","1999-05-10","TSC","","5257616","330960121","0 FENGYUN 1C DEB","1 40685U 99025EWR 25069.00810717  .00003429  00000-0  25871-2 0  9997","2 40685  99.3268 153.7618 0159357  34.3098 326.8231 13.89044879521073"
"3.0","GENERATED VIA SPACE-TRACK.ORG API","2025-03-10T03:46:15","18 SPCS","STARLINK-4354","2022-084AL","EARTH","TEME","UTC","SGP4","2025-03-10T02:16:40.560096","16.42302014","0.00161420","97.6292","137.8931","311.7883","87.6554","0","U","53223","999","14498","0.00163550000000","0.42483655","0.0000027498000","6537.823","87.682","170.241","149.135","PAYLOAD","LARGE","US","2022-07-22","AFWTR","2025-03-10","4664362","282718709","0 STARLINK-4354","1 53223U 22084AL  25069.09491389  .42483655  27498-5  16355-2 0  9990","2 53223  97.6292 137.8931 0016142 311.7883  87.6554 16.42302014144983"
"3.0","GENERATED VIA SPACE-TRACK.ORG API","2025-03-10T13:06:16","18 SPCS","STARLINK-31173","2024-012R","EARTH","TEME","UTC","SGP4","2025-03-10T05:38:24.059616","16.19233490","0.00138920","42.9838","16.0594","209.3843","293.6839","0","U","58802","999","6604","0.00680800000000","0.13265036","0.0000087056000","6599.771","88.931","230.804","212.467","PAYLOAD","LARGE","US","2024-01-15","AFETR","2025-03-10","4664690","282726508","0 STARLINK-31173","1 58802U 24012R   25069.23500069  .13265036  87056-5  68080-2 0  9990","2 58802  42.9838  16.0594 0013892 209.3843 293.6839 16.19233490 66040"
"3.0","GENERATED VIA SPACE-TRACK.ORG API","2025-03-11T05:36:17","18 SPCS","H-3 R/B","2024-198B","EARTH","TEME","UTC","SGP4","2025-03-11T02:05:34.853280","4.10114731","0.60727480","24.3177","130.9128","276.1801","22.0624","0","U","61734","999","306","0.00198170000000","0.09976362","-0.0000090319000","16486.619","351.121","20120.392","96.576","ROCKET BODY","LARGE","JPN","2024-11-04","TNSTA","2025-03-22","4665523","282805104","0 H-3 R/B","1 61734U 24198B   25070.08720895  .09976362 -90319-5  19817-2 0  9996","2 61734  24.3177 130.9128 6072748 276.1801  22.0624  4.10114731  3067"
"3.0","GENERATED VIA SPACE-TRACK.ORG API","2025-03-13T03:16:41","18 SPCS","ATLAS 5 CENTAUR DEB","2018-079BA","EARTH","TEME","UTC","SGP4","2025-03-11T05:08:26.111904","1.78716452","0.50251580","12.9946","78.7829","221.9804","86.1620","0","U","44688","999","3872","0.00000000000000","-0.00000094","0.0000000000000","28683.060","805.746","36718.616","7891.234","DEBRIS","","US","2018-10-17","AFETR","","4667689","282962679","0 ATLAS 5 CENTAUR DEB","1 44688U 18079BA  25070.21419111 -.00000094  00000-0  00000-0 0  9993","2 44688  12.9946  78.7829 5025158 221.9804  86.1620  1.78716452 38720"
"3.0","GENERATED VIA SPACE-TRACK.ORG API","2025-03-17T19:07:54","18 SPCS","NOAA 16 DEB","2000-055PF","EARTH","TEME","UTC","SGP4","2025-03-11T05:37:20.064864","15.31499341","0.00237550","98.8616","256.8767","304.4267","55.4724","0","U","41666","999","46136","0.01869100000000","0.00612702","0.0000000000000","6849.475","94.026","487.611","455.069","DEBRIS","SMALL","US","2000-09-21","AFWTR","2025-04-08","4672105","283334281","0 NOAA 16 DEB","1 41666U 00055PF  25070.23426001  .00612702  00000-0  18691-1 0  9999","2 41666  98.8616 256.8767 0023755 304.4267  55.4724 15.31499341461369"
"3.0","GENERATED VIA SPACE-TRACK.ORG API","2026-01-31T06:26:24","18 SPCS","IRIDIUM 33 DEB","1997-051PE","EARTH","TEME","UTC","SGP4","2025-03-11T06:48:20.240640","15.85061665","0.00107830","86.2562","273.8078","284.8168","75.1915","0","U","35079","999","82436","0.02487400000000","0.07237334","0.0000000000000","6694.288","90.848","323.372","308.935","DEBRIS","SMALL","US","1997-09-14","TTMTR","2025-03-12","4994289","310599219","0 IRIDIUM 33 DEB","1 35079U 97051PE  25070.28356760  .07237334  00000-0  24874-1 0  9992","2 35079  86.2562 273.8078 0010783 284.8168  75.1915 15.85061665824360"
"3.0","GENERATED VIA SPACE-TRACK.ORG API","2025-03-11T10:36:16","18 SPCS","STARLINK-2352","2021-021AJ","EARTH","TEME","UTC","SGP4","2025-03-11T07:33:57.390048","16.42149246","0.00037310","53.0338","18.5823","263.3236","223.7816","0","U","47892","999","22213","0.00078350000000","0.14105083","0.0000124140000","6538.228","87.690","162.533","157.654","PAYLOAD","LARGE","US","2021-03-14","AFETR","2025-03-11","4665837","282813015","0 STARLINK-2352","1 47892U 21021AJ  25070.31524757  .14105083  12414-4  78350-3 0  9998","2 47892  53.0338  18.5823 0003731 263.3236 223.7816 16.42149246222138"
"3.0","GENERATED VIA SPACE-TRACK.ORG API","2025-03-18T01:26:25","18 SPCS","TRANSIT 5B-2 DEB","1963-049P","EARTH","TEME","UTC","SGP4","2025-03-11T11:39:46.547424","15.35139875","0.00272570","89.8360","72.3927","163.1186","197.0982","0","U","42666","999","57078","0.07048500000000","0.02709717","0.0000000000000","6838.642","93.803","479.147","441.867","DEBRIS","SMALL","US","1963-12-05","AFWTR","2025-03-18","4672419","283355446","0 TRANSIT 5B-2 DEB","1 42666U 63049P   25070.48595541  .02709717  00000-0  70485-1 0  9999","2 42666  89.8360  72.3927 0027257 163.1186 197.0982 15.35139875570789"
"3.0","GENERATED VIA SPACE-TRACK.ORG API","2026-04-24T03:12:40","18 SPCS","COSMOS 2251 DEB","1993-036BUM","EARTH","TEME","UTC","SGP4","2025-03-11T12:48:40.498848","15.41351035","0.00318635","73.9905","359.4667","184.4894","175.6034","0","U","39582","999","66535","0.00836048610000","0.00372107","0.0000000000000","6820.258","93.425","463.855","420.391","DEBRIS","SMALL","CIS","1993-06-16","PKMTR","2025-04-07","5147185","320671765","0 COSMOS 2251 DEB","1 39582U 93036BUM 25070.53380207  .00372107  00000-0  83605-2 0  9994","2 39582  73.9905 359.4667 0031863 184.4894 175.6034 15.41351035665350"
"3.0","GENERATED VIA SPACE-TRACK.ORG API","2025-03-11T22:26:18","18 SPCS","FLOCK 1C 5","2014-033AE","EARTH","TEME","UTC","SGP4","2025-03-11T12:50:48.019200","16.30046462","0.00077240","98.0406","89.2728","205.5887","154.5023","0","U","40038","999","58523","0.00205230000000","0.09017069","0.0000029481000","6570.552","88.341","197.492","187.342","PAYLOAD","SMALL","US","2014-06-19","OREN","2025-03-14","4666232","282852566","0 FLOCK 1C 5","1 40038U 14033AE  25070.53527800  .09017069  29481-5  20523-2 0  9995","2 40038  98.0406  89.2728 0007724 205.5887 154.5023 16.30046462585230"
"3.0","GENERATED VIA SPACE-TRACK.ORG API","2025-03-11T14:16:17","18 SPCS","STARLINK-1869","2020-088AK","EARTH","TEME","UTC","SGP4","2025-03-11T13:00:59.275872","16.30922686","0.00014860","53.0140","81.1942","43.3463","50.1706","0","U","47155","999","23805","0.00116710000000","0.05959126","0.0000121310000","6568.198","88.294","191.039","189.087","PAYLOAD","LARGE","US","2020-11-25","AFETR","2025-03-11","4665863","282813021","0 STARLINK-1869","1 47155U 20088AK  25070.54235273  .05959126  12131-4  11671-2 0  9992","2 47155  53.0140  81.1942 0001486  43.3463  50.1706 16.30922686238054"
"3.0","GENERATED VIA SPACE-TRACK.ORG API","2025-03-13T03:16:41","18 SPCS","NOAA 16 DEB","2000-055TQ","EARTH","TEME","UTC","SGP4","2025-03-11T14:00:46.736928","15.45488310","0.00082230","98.9686","296.9217","29.2491","330.9211","0","U","42420","999","46940","0.02865100000000","0.01520877","0.0000000000000","6808.081","93.174","435.544","424.347","DEBRIS","SMALL","US","2000-09-21","AFWTR","2025-03-25","4667689","282961574","0 NOAA 16 DEB","1 42420U 00055TQ  25070.58387427  .01520877  00000-0  28651-1 0  9993","2 42420  98.9686 296.9217 0008223  29.2491 330.9211 15.45488310469409"
"3.0","GENERATED VIA SPACE-TRACK.ORG API","2025-03-12T02:20:35","18 SPCS","NOAA 16 DEB","2000-055FE","EARTH","TEME","UTC","SGP4","2025-03-11T15:52:46.979904","14.97062355","0.00161540","99.0405","321.7274","46.8343","313.4222","0","U","41254","999","47890","0.01322700000000","0.00156128","0.0000000000000","6954.116","96.188","587.214","564.747","DEBRIS","SMALL","US","2000-09-21","AFWTR","2025-06-05","4666552","282874675","0 NOAA 16 DEB","1 41254U 00055FE  25070.66165486  .00156128  00000-0  13227-1 0  9991","2 41254  99.0405 321.7274 0016154  46.8343 313.4222 14.97062355478903"
"3.0","GENERATED VIA SPACE-TRACK.ORG API","2025-03-11T18:06:16","18 SPCS","STARLINK-5898","2023-037R","EARTH","TEME","UTC","SGP4","2025-03-11T16:36:05.078016","16.47213240","0.00082090","69.9688","118.3608","251.8188","228.4522","0","U","55929","999","10997","0.00027346000000","0.15255062","0.0000044872000","6524.821","87.420","152.043","141.330","PAYLOAD","LARGE","US","2023-03-17","AFWTR","2025-03-12","4666182","282820982","0 STARLINK-5898","1 55929U 23037R   25070.69172544  .15255062  44872-5  27346-3 0  9998","2 55929  69.9688 118.3608 0008209 251.8188 228.4522 16.47213240109978"
"3.0","GENERATED VIA SPACE-TRACK.ORG API","2025-03-12T02:20:35","18 SPCS","ICEYE-X18","2022-057T","EARTH","TEME","UTC","SGP4","2025-03-11T18:12:11.970432","16.45158447","0.00116820","97.5453","211.7976","275.8963","84.1006","0","U","52749","999","15572","0.00038355000000","0.15490060","0.0000026594000","6530.253","87.530","159.747","144.490","PAYLOAD","MEDIUM","BRAZ","2022-05-25","AFETR","2025-03-14","4666552","282880066","0 ICEYE-X18","1 52749U 22057T   25070.75847188  .15490060  26594-5  38355-3 0  9998","2 52749  97.5453 211.7976 0011682 275.8963  84.1006 16.45158447155727"
